start=new Date('2022-05-11T00:00:00.000Z').valueOf();
sats=[{"ECCENTRICITY":"0.00014630","BSTAR":"-0.00808330000000","INCLINATION":"53.2166","EPHEMERIS_TYPE":"0","REV_AT_EPOCH":"368","RA_OF_ASC_NODE":"167.0980","LAUNCH_DATE":"2022-03-03","OBJECT_NAME":"STARLINK-3551","MEAN_MOTION_DOT":"-0.00705897","MEAN_ELEMENT_THEORY":"SGP4","OBJECT_TYPE":"PAYLOAD","OBJECT_ID":"2022-022AM","CLASSIFICATION_TYPE":"U","CENTER_NAME":"EARTH","ARG_OF_PERICENTER":"49.8632","FILE":"3439673","EPOCH":"2022-05-10T18:00:00.999648","MEAN_MOTION":"15.63718953","REF_FRAME":"TEME","GP_ID":"203230650","MEAN_ANOMALY":"147.0700","ELEMENT_SET_NO":"999","APOAPSIS":"377.916","PERIOD":"92.088","NORAD_CAT_ID":"51887","SEMIMAJOR_AXIS":"6755.063","TLE_LINE1":"1 51887U 22022AM  22130.75001157 -.00705897  00000-0 -80833-2 0  9993","DECAY_DATE":null,"TLE_LINE2":"2 51887  53.2166 167.0980 0001463  49.8632 147.0700 15.63718953  3685","TIME_SYSTEM":"UTC","SITE":"AFETR","COUNTRY_CODE":"US","MEAN_MOTION_DDOT":"0.0000000000000","PERIAPSIS":"375.939","RCS_SIZE":"LARGE"},{"EPHEMERIS_TYPE":"0","REV_AT_EPOCH":"368","LAUNCH_DATE":"2022-03-03","OBJECT_NAME":"STARLINK-3536","RA_OF_ASC_NODE":"167.0886","INCLINATION":"53.2166","BSTAR":"-0.00815400000000","ECCENTRICITY":"0.00013970","FILE":"3439673","MEAN_MOTION":"15.63713881","EPOCH":"2022-05-10T18:00:00.999648","REF_FRAME":"TEME","GP_ID":"203230480","ARG_OF_PERICENTER":"50.8753","CENTER_NAME":"EARTH","MEAN_MOTION_DOT":"-0.00711426","OBJECT_ID":"2022-022AN","OBJECT_TYPE":"PAYLOAD","MEAN_ELEMENT_THEORY":"SGP4","CLASSIFICATION_TYPE":"U","PERIOD":"92.088","NORAD_CAT_ID":"51888","SEMIMAJOR_AXIS":"6755.077","TLE_LINE1":"1 51888U 22022AN  22130.75001157 -.00711426  00000-0 -81540-2 0  9995","DECAY_DATE":null,"APOAPSIS":"377.886","ELEMENT_SET_NO":"999","MEAN_ANOMALY":"144.5912","RCS_SIZE":"LARGE","PERIAPSIS":"375.998","MEAN_MOTION_DDOT":"0.0000000000000","SITE":"AFETR","COUNTRY_CODE":"US","TLE_LINE2":"2 51888  53.2166 167.0886 0001397  50.8753 144.5912 15.63713881  3685","TIME_SYSTEM":"UTC"},{"MEAN_ANOMALY":"146.7118","APOAPSIS":"377.877","ELEMENT_SET_NO":"999","SEMIMAJOR_AXIS":"6755.025","TLE_LINE1":"1 51889U 22022AP  22130.75001157 -.00706028  00000-0 -80807-2 0  9993","PERIOD":"92.087","NORAD_CAT_ID":"51889","DECAY_DATE":null,"TIME_SYSTEM":"UTC","TLE_LINE2":"2 51889  53.2167 167.1113 0001462  52.4191 146.7118 15.63732156  3686","COUNTRY_CODE":"US","SITE":"AFETR","PERIAPSIS":"375.902","MEAN_MOTION_DDOT":"0.0000000000000","RCS_SIZE":"LARGE","ECCENTRICITY":"0.00014620","BSTAR":"-0.00808070000000","INCLINATION":"53.2167","REV_AT_EPOCH":"368","EPHEMERIS_TYPE":"0","OBJECT_NAME":"STARLINK-3547","LAUNCH_DATE":"2022-03-03","RA_OF_ASC_NODE":"167.1113","MEAN_MOTION_DOT":"-0.00706028","CLASSIFICATION_TYPE":"U","OBJECT_TYPE":"PAYLOAD","MEAN_ELEMENT_THEORY":"SGP4","OBJECT_ID":"2022-022AP","CENTER_NAME":"EARTH","ARG_OF_PERICENTER":"52.4191","EPOCH":"2022-05-10T18:00:00.999648","MEAN_MOTION":"15.63732156","FILE":"3439673","GP_ID":"203230563","REF_FRAME":"TEME"},{"TLE_LINE2":"2 51890  53.2165 167.1024 0001554  46.2860 151.3809 15.63721039  3680","TIME_SYSTEM":"UTC","COUNTRY_CODE":"US","SITE":"AFETR","PERIAPSIS":"375.872","MEAN_MOTION_DDOT":"0.0000000000000","RCS_SIZE":"LARGE","MEAN_ANOMALY":"151.3809","ELEMENT_SET_NO":"999","APOAPSIS":"377.971","SEMIMAJOR_AXIS":"6755.057","TLE_LINE1":"1 51890U 22022AQ  22130.75001157 -.00702844  00000-0 -80444-2 0  9994","PERIOD":"92.088","NORAD_CAT_ID":"51890","DECAY_DATE":null,"MEAN_MOTION_DOT":"-0.00702844","CLASSIFICATION_TYPE":"U","OBJECT_TYPE":"PAYLOAD","OBJECT_ID":"2022-022AQ","MEAN_ELEMENT_THEORY":"SGP4","CENTER_NAME":"EARTH","ARG_OF_PERICENTER":"46.2860","MEAN_MOTION":"15.63721039","EPOCH":"2022-05-10T18:00:00.999648","FILE":"3439673","GP_ID":"203230394","REF_FRAME":"TEME","ECCENTRICITY":"0.00015540","BSTAR":"-0.00804440000000","INCLINATION":"53.2165","REV_AT_EPOCH":"368","EPHEMERIS_TYPE":"0","RA_OF_ASC_NODE":"167.1024","LAUNCH_DATE":"2022-03-03","OBJECT_NAME":"STARLINK-3519"},{"CENTER_NAME":"EARTH","CLASSIFICATION_TYPE":"U","OBJECT_ID":"2022-022AR","OBJECT_TYPE":"PAYLOAD","MEAN_ELEMENT_THEORY":"SGP4","MEAN_MOTION_DOT":"-0.00707586","GP_ID":"203230308","REF_FRAME":"TEME","EPOCH":"2022-05-10T18:00:00.999648","MEAN_MOTION":"15.63737710","FILE":"3439673","ARG_OF_PERICENTER":"47.8185","BSTAR":"-0.00809840000000","ECCENTRICITY":"0.00014250","RA_OF_ASC_NODE":"167.1157","LAUNCH_DATE":"2022-03-03","OBJECT_NAME":"STARLINK-3549","REV_AT_EPOCH":"368","EPHEMERIS_TYPE":"0","INCLINATION":"53.2167","COUNTRY_CODE":"US","SITE":"AFETR","TLE_LINE2":"2 51891  53.2167 167.1157 0001425  47.8185 152.0443 15.63737710  3689","TIME_SYSTEM":"UTC","RCS_SIZE":"LARGE","PERIAPSIS":"375.911","MEAN_MOTION_DDOT":"0.0000000000000","APOAPSIS":"377.836","ELEMENT_SET_NO":"999","MEAN_ANOMALY":"152.0443","DECAY_DATE":null,"TLE_LINE1":"1 51891U 22022AR  22130.75001157 -.00707586  00000-0 -80984-2 0  9992","SEMIMAJOR_AXIS":"6755.009","PERIOD":"92.087","NORAD_CAT_ID":"51891"},{"REV_AT_EPOCH":"368","EPHEMERIS_TYPE":"0","OBJECT_NAME":"STARLINK-3587","LAUNCH_DATE":"2022-03-03","RA_OF_ASC_NODE":"167.1069","INCLINATION":"53.2167","BSTAR":"-0.00794730000000","ECCENTRICITY":"0.00013730","MEAN_MOTION":"15.63720548","EPOCH":"2022-05-10T18:00:00.999648","FILE":"3439673","GP_ID":"203230824","REF_FRAME":"TEME","ARG_OF_PERICENTER":"56.3762","CENTER_NAME":"EARTH","MEAN_MOTION_DOT":"-0.00694985","CLASSIFICATION_TYPE":"U","OBJECT_TYPE":"PAYLOAD","MEAN_ELEMENT_THEORY":"SGP4","OBJECT_ID":"2022-022AS","TLE_LINE1":"1 51892U 22022AS  22130.75001157 -.00694985  00000-0 -79473-2 0  9992","SEMIMAJOR_AXIS":"6755.058","PERIOD":"92.088","NORAD_CAT_ID":"51892","DECAY_DATE":null,"APOAPSIS":"377.850","ELEMENT_SET_NO":"999","MEAN_ANOMALY":"142.0248","RCS_SIZE":"LARGE","MEAN_MOTION_DDOT":"0.0000000000000","PERIAPSIS":"375.995","COUNTRY_CODE":"US","SITE":"AFETR","TLE_LINE2":"2 51892  53.2167 167.1069 0001373  56.3762 142.0248 15.63720548  3683","TIME_SYSTEM":"UTC"},{"LAUNCH_DATE":"2022-03-03","RA_OF_ASC_NODE":"167.1246","OBJECT_NAME":"STARLINK-3579","REV_AT_EPOCH":"368","EPHEMERIS_TYPE":"0","INCLINATION":"53.2168","BSTAR":"-0.00815170000000","ECCENTRICITY":"0.00013500","GP_ID":"203230221","REF_FRAME":"TEME","EPOCH":"2022-05-10T18:00:00.999648","MEAN_MOTION":"15.63749212","FILE":"3439673","ARG_OF_PERICENTER":"57.3140","CENTER_NAME":"EARTH","CLASSIFICATION_TYPE":"U","OBJECT_TYPE":"PAYLOAD","OBJECT_ID":"2022-022AT","MEAN_ELEMENT_THEORY":"SGP4","MEAN_MOTION_DOT":"-0.00712149","DECAY_DATE":null,"SEMIMAJOR_AXIS":"6754.975","TLE_LINE1":"1 51893U 22022AT  22130.75001157 -.00712149  00000-0 -81517-2 0  9998","PERIOD":"92.086","NORAD_CAT_ID":"51893","APOAPSIS":"377.752","ELEMENT_SET_NO":"999","MEAN_ANOMALY":"144.0129","RCS_SIZE":"LARGE","PERIAPSIS":"375.928","MEAN_MOTION_DDOT":"0.0000000000000","COUNTRY_CODE":"US","SITE":"AFETR","TIME_SYSTEM":"UTC","TLE_LINE2":"2 51893  53.2168 167.1246 0001350  57.3140 144.0129 15.63749212  3687"},{"MEAN_ANOMALY":"144.8349","ELEMENT_SET_NO":"999","APOAPSIS":"377.835","DECAY_DATE":null,"TLE_LINE1":"1 51894U 22022AU  22130.75001157 -.00699602  00000-0 -79994-2 0  9993","SEMIMAJOR_AXIS":"6755.011","NORAD_CAT_ID":"51894","PERIOD":"92.087","TLE_LINE2":"2 51894  53.2167 167.1198 0001419  55.7626 144.8349 15.63736813  3685","TIME_SYSTEM":"UTC","COUNTRY_CODE":"US","SITE":"AFETR","PERIAPSIS":"375.918","MEAN_MOTION_DDOT":"0.0000000000000","RCS_SIZE":"LARGE","ECCENTRICITY":"0.00014190","BSTAR":"-0.00799940000000","INCLINATION":"53.2167","RA_OF_ASC_NODE":"167.1198","LAUNCH_DATE":"2022-03-03","OBJECT_NAME":"STARLINK-3595","REV_AT_EPOCH":"368","EPHEMERIS_TYPE":"0","CLASSIFICATION_TYPE":"U","OBJECT_TYPE":"PAYLOAD","OBJECT_ID":"2022-022AU","MEAN_ELEMENT_THEORY":"SGP4","MEAN_MOTION_DOT":"-0.00699602","CENTER_NAME":"EARTH","ARG_OF_PERICENTER":"55.7626","GP_ID":"203230738","REF_FRAME":"TEME","MEAN_MOTION":"15.63736813","EPOCH":"2022-05-10T18:00:00.999648","FILE":"3439673"},{"RCS_SIZE":"LARGE","PERIAPSIS":"375.826","MEAN_MOTION_DDOT":"0.0000000000000","SITE":"AFETR","COUNTRY_CODE":"US","TLE_LINE2":"2 51895  53.2168 167.1277 0001467  47.5045 155.2872 15.63757250  3687","TIME_SYSTEM":"UTC","PERIOD":"92.086","NORAD_CAT_ID":"51895","SEMIMAJOR_AXIS":"6754.952","TLE_LINE1":"1 51895U 22022AV  22130.75001157 -.00711144  00000-0 -81363-2 0  9993","DECAY_DATE":null,"APOAPSIS":"377.808","ELEMENT_SET_NO":"999","MEAN_ANOMALY":"155.2872","FILE":"3439673","EPOCH":"2022-05-10T18:00:00.999648","MEAN_MOTION":"15.63757250","REF_FRAME":"TEME","GP_ID":"203230651","ARG_OF_PERICENTER":"47.5045","CENTER_NAME":"EARTH","MEAN_MOTION_DOT":"-0.00711144","OBJECT_TYPE":"PAYLOAD","MEAN_ELEMENT_THEORY":"SGP4","OBJECT_ID":"2022-022AV","CLASSIFICATION_TYPE":"U","EPHEMERIS_TYPE":"0","REV_AT_EPOCH":"368","LAUNCH_DATE":"2022-03-03","OBJECT_NAME":"STARLINK-3594","RA_OF_ASC_NODE":"167.1277","INCLINATION":"53.2168","BSTAR":"-0.00813630000000","ECCENTRICITY":"0.00014670"},{"TIME_SYSTEM":"UTC","TLE_LINE2":"2 51896  53.2169 167.1273 0001418  50.8920 151.1673 15.63753041  3688","SITE":"AFETR","COUNTRY_CODE":"US","MEAN_MOTION_DDOT":"0.0000000000000","PERIAPSIS":"375.872","RCS_SIZE":"LARGE","MEAN_ANOMALY":"151.1673","APOAPSIS":"377.787","ELEMENT_SET_NO":"999","PERIOD":"92.086","NORAD_CAT_ID":"51896","SEMIMAJOR_AXIS":"6754.964","TLE_LINE1":"1 51896U 22022AW  22130.75001157 -.00711186  00000-0 -81383-2 0  9992","DECAY_DATE":null,"MEAN_MOTION_DOT":"-0.00711186","OBJECT_TYPE":"PAYLOAD","MEAN_ELEMENT_THEORY":"SGP4","OBJECT_ID":"2022-022AW","CLASSIFICATION_TYPE":"U","CENTER_NAME":"EARTH","ARG_OF_PERICENTER":"50.8920","FILE":"3439673","EPOCH":"2022-05-10T18:00:00.999648","MEAN_MOTION":"15.63753041","REF_FRAME":"TEME","GP_ID":"203230481","ECCENTRICITY":"0.00014180","BSTAR":"-0.00813830000000","INCLINATION":"53.2169","EPHEMERIS_TYPE":"0","REV_AT_EPOCH":"368","LAUNCH_DATE":"2022-03-03","RA_OF_ASC_NODE":"167.1273","OBJECT_NAME":"STARLINK-3593"}];
